[
    {
        "CCSDS_OMM_VERS": "3.0",
        "COMMENT": "GENERATED VIA SPACE-TRACK.ORG API",
        "CREATION_DATE": "2025-05-02T17:35:09",
        "ORIGINATOR": "18 SPCS",
        "OBJECT_NAME": "GALILEO 29 (10C)",
        "OBJECT_ID": "2024-079A",
        "CENTER_NAME": "EARTH",
        "REF_FRAME": "TEME",
        "TIME_SYSTEM": "UTC",
        "MEAN_ELEMENT_THEORY": "SGP4",
        "EPOCH": "2025-05-02T12:03:28.486656",
        "MEAN_MOTION": "1.70474495",
        "ECCENTRICITY": "0.00029300",
        "INCLINATION": "54.8707",
        "RA_OF_ASC_NODE": "112.5671",
        "ARG_OF_PERICENTER": "264.6216",
        "MEAN_ANOMALY": "273.4669",
        "EPHEMERIS_TYPE": "0",
        "CLASSIFICATION_TYPE": "U",
        "NORAD_CAT_ID": "59598",
        "ELEMENT_SET_NO": "999",
        "REV_AT_EPOCH": "631",
        "BSTAR": "0.00000000000000",
        "MEAN_MOTION_DOT": "0.00000037",
        "MEAN_MOTION_DDOT": "0.0000000000000",
        "SEMIMAJOR_AXIS": "29600.263",
        "PERIOD": "844.701",
        "APOAPSIS": "23230.801",
        "PERIAPSIS": "23213.455",
        "OBJECT_TYPE": "PAYLOAD",
        "RCS_SIZE": "LARGE",
        "COUNTRY_CODE": "ESA",
        "LAUNCH_DATE": "2024-04-28",
        "SITE": "AFETR",
        "DECAY_DATE": null,
        "FILE": "4716995",
        "GP_ID": "286689989",
        "TLE_LINE0": "0 GALILEO 29 (10C)",
        "TLE_LINE1": "1 59598U 24079A   25122.50241304  .00000037  00000-0  00000-0 0  9999",
        "TLE_LINE2": "2 59598  54.8707 112.5671 0002930 264.6216 273.4669  1.70474495  6311"
    }
]